{"type":"FeatureCollection","features":[{"type":"Feature","properties":{"name":"Talca","comuna":"Talca","cut":"07101","metro":null,"es_bbox":false},"geometry":{"type":"Polygon","coordinates":[[[-71.6423,-35.3336],[-71.6235,-35.3487],[-71.6217,-35.3552],[-71.6078,-35.3582],[-71.6002,-35.3527],[-71.5819,-35.3548],[-71.5731,-35.3533],[-71.5687,-35.3619],[-71.5499,-35.3637],[-71.5441,-35.359],[-71.5489,-35.3943],[-71.5517,-35.3954],[-71.555,-35.4146],[-71.5437,-35.42],[-71.5165,-35.4145],[-71.4979,-35.4235],[-71.493,-35.4233],[-71.4926,-35.4352],[-71.4979,-35.4518],[-71.5051,-35.4508],[-71.5331,-35.4963],[-71.5419,-35.4883],[-71.5589,-35.5108],[-71.554,-35.5134],[-71.5616,-35.5254],[-71.5707,-35.531],[-71.5831,-35.5275],[-71.6063,-35.5087],[-71.6118,-35.5019],[-71.633,-35.4884],[-71.6422,-35.4736],[-71.6453,-35.4564],[-71.6591,-35.451],[-71.6661,-35.4526],[-71.6914,-35.4513],[-71.7076,-35.4443],[-71.7238,-35.4476],[-71.7215,-35.4391],[-71.7091,-35.4249],[-71.6952,-35.4122],[-71.6857,-35.391],[-71.6761,-35.3882],[-71.6684,-35.3776],[-71.6641,-35.3665],[-71.6633,-35.3473],[-71.6557,-35.3353],[-71.6555,-35.3224],[-71.64320849056604,-35.3123],[-71.6376625,-35.3123],[-71.6347,-35.3126],[-71.6423,-35.3336]]]}},{"type":"Feature","properties":{"name":"Maule","comuna":"Maule","cut":"07105","metro":null,"es_bbox":false},"geometry":{"type":"Polygon","coordinates":[[[-71.7076,-35.4443],[-71.6914,-35.4513],[-71.6661,-35.4526],[-71.6591,-35.451],[-71.6453,-35.4564],[-71.6422,-35.4736],[-71.633,-35.4884],[-71.6118,-35.5019],[-71.6063,-35.5087],[-71.5831,-35.5275],[-71.5707,-35.531],[-71.5746,-35.5459],[-71.5868,-35.57],[-71.57705609756098,-35.5747],[-71.6130864864865,-35.5747],[-71.6421,-35.5652],[-71.6535,-35.5643],[-71.6629,-35.5594],[-71.6921,-35.5528],[-71.7048,-35.5557],[-71.7152,-35.5634],[-71.7321,-35.5667],[-71.7451,-35.5717],[-71.7522,-35.5713],[-71.7648,-35.5606],[-71.7716,-35.5453],[-71.7816,-35.5389],[-71.7856,-35.524],[-71.8039,-35.5213],[-71.8085,-35.51937531380753],[-71.8085,-35.454705624999995],[-71.8062,-35.4538],[-71.7931,-35.4565],[-71.7884,-35.4614],[-71.7625,-35.4601],[-71.7465,-35.4653],[-71.7397,-35.4628],[-71.7333,-35.4519],[-71.7238,-35.4476],[-71.7076,-35.4443]]]}}]}