{"type":"FeatureCollection","features":[{"type":"Feature","properties":{"cut":7101,"comuna":"TALCA"},"geometry":{"type":"Polygon","coordinates":[[[-71.64162804799992,-35.31211230999992],[-71.6522027929999,-35.31401345499995],[-71.64841328799992,-35.317760921999934],[-71.65568994799992,-35.32253001999993],[-71.6568672969999,-35.33167446899995],[-71.65581499899992,-35.3368792089999],[-71.66331792299991,-35.34726329199992],[-71.66458074999991,-35.35309031399993],[-71.66409076899993,-35.36652687499992],[-71.6677092029999,-35.372401502999935],[-71.66870429799991,-35.3782051899999],[-71.6751984089999,-35.38539007899993],[-71.67606097999993,-35.38821937699993],[-71.67872730599993,-35.389562981999916],[-71.6824721939999,-35.389485115999946],[-71.6865603789999,-35.39186969699995],[-71.69070774999994,-35.40078336499994],[-71.69009462199995,-35.40260198199991],[-71.69391314799992,-35.40785646699993],[-71.69520854599995,-35.41215817199992],[-71.70165664299992,-35.41726589199993],[-71.7203785019999,-35.437680291999925],[-71.72380596799991,-35.44759138799992],[-71.71175963399992,-35.447082732999945],[-71.70760694199993,-35.44432528099992],[-71.69757502399995,-35.447668766999925],[-71.6958355889999,-35.44994457599995],[-71.69144895499994,-35.45130018799995],[-71.68008482099992,-35.45070130999994],[-71.66551437599992,-35.45263054599991],[-71.65832668299993,-35.451071344999946],[-71.65086966399991,-35.455565477999926],[-71.64533252799993,-35.45638504099992],[-71.64013850999993,-35.45938395199994],[-71.64304010899991,-35.46396155399992],[-71.64221788899994,-35.473574527999915],[-71.63301353599991,-35.48841389799992],[-71.61178822099993,-35.501949751999916],[-71.60634050699991,-35.50867012099991],[-71.5832281559999,-35.525869892999935],[-71.58260486799992,-35.52784821999995],[-71.5714050659999,-35.53153540899996],[-71.5688775619999,-35.53081970399995],[-71.5643166079999,-35.52442512399995],[-71.56159606799991,-35.525422018999905],[-71.55401546099995,-35.51336664299993],[-71.55902596299995,-35.51094563599992],[-71.54196525999993,-35.48845489599995],[-71.53296626399992,-35.49638857399992],[-71.50505486799995,-35.45077118799992],[-71.49793326699995,-35.4518426379999],[-71.49256955599992,-35.43519143799995],[-71.49325033699995,-35.43344423499991],[-71.49582789699991,-35.432205807999935],[-71.49301856299991,-35.42332871199994],[-71.49787953299995,-35.42353667599991],[-71.50281780299991,-35.42150165699991],[-71.51346470199991,-35.414750961999914],[-71.52676585899991,-35.41595358899991],[-71.53082069499993,-35.414797809999925],[-71.53444958099993,-35.41749037999995],[-71.54077818399992,-35.41749651899994],[-71.54314988699991,-35.420031052999946],[-71.54841858299994,-35.41883399799991],[-71.55474416299995,-35.4148543039999],[-71.55167549399994,-35.3953708489999],[-71.54888305599991,-35.39430118699994],[-71.54411027599991,-35.35904235599992],[-71.54925099699994,-35.35862532999994],[-71.55000096099991,-35.3638848839999],[-71.5552677949999,-35.36526657799993],[-71.55575085699991,-35.36254189099992],[-71.56855293899991,-35.362015835999955],[-71.56949762099993,-35.35799636799993],[-71.57116380899993,-35.357488005999926],[-71.57406852699995,-35.35294673699991],[-71.57723400299994,-35.352740439999934],[-71.58355579199991,-35.35506756399991],[-71.5920800639999,-35.35316185999994],[-71.5948907579999,-35.35590106799992],[-71.60091579399995,-35.35256230899995],[-71.6078055609999,-35.358224986999915],[-71.61636050699991,-35.355273145999945],[-71.62167085399994,-35.355150332999926],[-71.62335123499992,-35.34882666099992],[-71.62607764799992,-35.345022195999945],[-71.62829811599994,-35.34567246599994],[-71.62887980699992,-35.34237429199993],[-71.63413329699995,-35.339041935999944],[-71.63751421699993,-35.338508464999904],[-71.64229200799991,-35.333587467999905],[-71.64247294899991,-35.32701574199996],[-71.63784217799991,-35.32216386199991],[-71.63707189099995,-35.315862025999934],[-71.6346953389999,-35.312626364999915],[-71.63854460699991,-35.31395460299996],[-71.64162804799992,-35.31211230999992]]]}},{"type":"Feature","properties":{"cut":7105,"comuna":"MAULE"},"geometry":{"type":"Polygon","coordinates":[[[-71.70760694199993,-35.44432528099992],[-71.71213475699994,-35.447144462999916],[-71.7248773579999,-35.447781619999944],[-71.7333086559999,-35.45186820899994],[-71.73825841799993,-35.45843348599993],[-71.73973340599991,-35.46284960999992],[-71.74653354599991,-35.465264447999914],[-71.74934313999995,-35.46498735699993],[-71.7537179489999,-35.46141561399992],[-71.76249088999992,-35.460137077999946],[-71.76687413399992,-35.45638920399995],[-71.7698889099999,-35.45674616999992],[-71.77274172199992,-35.46041576499994],[-71.77513826899991,-35.461501246999944],[-71.78481353299992,-35.46263191799994],[-71.7884030159999,-35.461433464999914],[-71.78995224399995,-35.45816387799994],[-71.7930513419999,-35.456525411999905],[-71.79953729199991,-35.45603663499992],[-71.80537928299992,-35.45377014099995],[-71.81300658099991,-35.45604288499993],[-71.81619773999995,-35.455742811999926],[-71.82468642799995,-35.460620529999915],[-71.82975432499995,-35.459336090999955],[-71.83611140699992,-35.46019575099996],[-71.84730006799992,-35.45937439499994],[-71.85055702799991,-35.457467537999946],[-71.85450941399995,-35.459203989999935],[-71.8737887289999,-35.458132021999916],[-71.88117705499991,-35.46420282799994],[-71.87835689999991,-35.46665308799993],[-71.8721293449999,-35.48122966199992],[-71.86414026499995,-35.48732445999991],[-71.8578403379999,-35.49429561599993],[-71.85157267499994,-35.49840499499993],[-71.81725595299991,-35.51615610899995],[-71.80386357099991,-35.521254609999914],[-71.79092794099995,-35.52210498399995],[-71.7855660159999,-35.52402615999995],[-71.78328055999992,-35.52864514999993],[-71.78260327999993,-35.537609783999926],[-71.77160690799991,-35.54534516199993],[-71.76290422299991,-35.56373647299995],[-71.75354451399994,-35.57091927399995],[-71.74508812999994,-35.57173577499992],[-71.73213909599991,-35.56665171699996],[-71.71516019299992,-35.56343588499993],[-71.70314661899994,-35.55497849199992],[-71.69105909399991,-35.552874233999944],[-71.68233573099991,-35.55574617599996],[-71.66517296399991,-35.558602753999935],[-71.65522461899991,-35.56384720099993],[-71.64208484099993,-35.56524556599993],[-71.57455312899992,-35.58587359699993],[-71.56928536599992,-35.57693847899992],[-71.57384409899993,-35.57479048499994],[-71.58296816199993,-35.57355590099991],[-71.58708630799993,-35.568482471999914],[-71.58675123899991,-35.567606345999934],[-71.58489831499992,-35.56817164799992],[-71.57456228599995,-35.545745171999954],[-71.5763445469999,-35.54491684399994],[-71.57028135699994,-35.53397891399993],[-71.57129109199991,-35.53322859299993],[-71.5707089249999,-35.53102531199994],[-71.58260486799992,-35.52784821999995],[-71.5832281559999,-35.525869892999935],[-71.60634050699991,-35.50867012099991],[-71.61178822099993,-35.501949751999916],[-71.63301353599991,-35.48841389799992],[-71.64221788899994,-35.473574527999915],[-71.64304010899991,-35.46396155399992],[-71.64013850999993,-35.45938395199994],[-71.64536265599992,-35.45637311299993],[-71.65091943599992,-35.45554464399993],[-71.65832668299993,-35.451071344999946],[-71.66551437599992,-35.45263054599991],[-71.68008482099992,-35.45070130999994],[-71.69139312599992,-35.45130739099994],[-71.6958355889999,-35.44994457599995],[-71.69757502399995,-35.447668766999925],[-71.70760694199993,-35.44432528099992]]]}},{"type":"Feature","properties":{"cut":7106,"comuna":"PELARCO"},"geometry":{"type":"Polygon","coordinates":[[[-71.2665246219999,-35.309614805999956],[-71.26881565499991,-35.30773734899992],[-71.27952230999995,-35.305600426999945],[-71.28504573299995,-35.30963116999993],[-71.29351465299993,-35.311855116999936],[-71.29486116399994,-35.31525959599992],[-71.29807386899995,-35.31734401299991],[-71.30138058999995,-35.317416307999906],[-71.30373245299995,-35.32013896099994],[-71.31259668599995,-35.3216688949999],[-71.31505719599994,-35.32019298599994],[-71.3176292629999,-35.322302658999945],[-71.32035003599992,-35.32138505799992],[-71.32589902599995,-35.32241871899993],[-71.3304722769999,-35.320649412999956],[-71.33460163699993,-35.321809199999905],[-71.3364350679999,-35.319912280999915],[-71.34171398899991,-35.32011208999995],[-71.34460665599994,-35.318744401999936],[-71.35635837399991,-35.32067028299991],[-71.36186539099992,-35.32309582499994],[-71.36400425999994,-35.32208946199995],[-71.37153566599994,-35.32360504799993],[-71.38053475499993,-35.3207508399999],[-71.38497509599995,-35.322119105999946],[-71.3915971589999,-35.32188907299991],[-71.40277650899992,-35.32978919799996],[-71.41011608399992,-35.33027402499994],[-71.4095301349999,-35.331899267999916],[-71.4107347019999,-35.334273039999914],[-71.4098062079999,-35.33654452999991],[-71.41276545699992,-35.337897047999945],[-71.41411741599995,-35.34094971199994],[-71.41740972299993,-35.34301539799992],[-71.41592153599993,-35.34631265399992],[-71.42905920099992,-35.35641905999995],[-71.42869457899991,-35.36279149099994],[-71.43495816299992,-35.36794471399992],[-71.4437817939999,-35.36737924699992],[-71.44464063099991,-35.36552852799991],[-71.45571208899992,-35.3621605589999],[-71.45718181899991,-35.36557255799994],[-71.45928079999993,-35.36672172899995],[-71.46181463899995,-35.36566244799991],[-71.4681358489999,-35.37223516699993],[-71.47189600799993,-35.37124809399995],[-71.47162544399993,-35.36964373899991],[-71.47765548399991,-35.369977011999936],[-71.48240589999995,-35.36736113899991],[-71.48606953299992,-35.367207968999935],[-71.4897181149999,-35.36924055599991],[-71.4947294019999,-35.36979734899995],[-71.49714804999991,-35.36866834199992],[-71.49622766199991,-35.366236080999954],[-71.4977847099999,-35.36342921699992],[-71.50573113899992,-35.36341939999994],[-71.51385921499991,-35.36018822799991],[-71.51632725099995,-35.360726823999926],[-71.51577537999992,-35.36277922599993],[-71.5172866499999,-35.364123252999946],[-71.52556767199991,-35.36478716699992],[-71.52935748199991,-35.36303342499991],[-71.53549893699994,-35.36374196399993],[-71.54411027599991,-35.35904235599992],[-71.54888305599991,-35.39430118699994],[-71.55167549399994,-35.3953708489999],[-71.5550075619999,-35.41461538099992],[-71.54841858299994,-35.41883399799991],[-71.54314988699991,-35.420031052999946],[-71.54077818399992,-35.41749651899994],[-71.53444958099993,-35.41749037999995],[-71.53082069499993,-35.414797809999925],[-71.52676585899991,-35.41595358899991],[-71.51346470199991,-35.414750961999914],[-71.50281780299991,-35.42150165699991],[-71.48926635499993,-35.424900813999955],[-71.4818745529999,-35.424616631999925],[-71.47668972899993,-35.422588591999954],[-71.47487454499992,-35.42053457199995],[-71.4709606049999,-35.420195135999904],[-71.46520269199993,-35.424449343999925],[-71.44890201299995,-35.42819292199994],[-71.43992724799995,-35.42644345799994],[-71.43557022699991,-35.430433501999914],[-71.42340373999991,-35.43587251799994],[-71.41465679799995,-35.43142687699992],[-71.41142479299992,-35.431270250999944],[-71.40670160699995,-35.434098099999915],[-71.40402403099995,-35.43909774399992],[-71.3938434929999,-35.44192012599996],[-71.39017632399992,-35.444652238999936],[-71.3799798519999,-35.444982472999925],[-71.37746663799993,-35.44309672399993],[-71.36760950099995,-35.443459843999904],[-71.35957405199991,-35.44098159799995],[-71.34955070799992,-35.44203956599995],[-71.33629189599992,-35.439896510999915],[-71.32419803899995,-35.44043202499995],[-71.31826740299994,-35.43653021099993],[-71.3146976349999,-35.439943059999905],[-71.31227292799991,-35.44061604199993],[-71.31285962399994,-35.445540158999904],[-71.31044733199991,-35.451986561999945],[-71.31240467999993,-35.452449361999925],[-71.31179779799993,-35.45426836699994],[-71.3008797199999,-35.45778984599991],[-71.29491244099995,-35.456447675999925],[-71.29370757299995,-35.457435124999904],[-71.29364000699991,-35.46282700699993],[-71.28297173599992,-35.46773937499995],[-71.2756165209999,-35.46889696799991],[-71.2719130289999,-35.46615427699993],[-71.27008195999991,-35.45753490299995],[-71.26739782099992,-35.45643152799994],[-71.26691351799991,-35.45356502299995],[-71.26154102899994,-35.448757471999954],[-71.26123906099991,-35.44436407499995],[-71.25770173099994,-35.43840413399994],[-71.25037130399994,-35.433781395999915],[-71.25172392799993,-35.430763354999954],[-71.24970106499995,-35.431774643999915],[-71.2483743969999,-35.43022182799996],[-71.24868039899991,-35.424938132999955],[-71.2503291729999,-35.422374325999954],[-71.24857893699993,-35.41679540699994],[-71.25000796899991,-35.41411851099991],[-71.24915095199992,-35.40674707499994],[-71.25249591099993,-35.40295775599992],[-71.24906087399995,-35.40157440899992],[-71.24882840499993,-35.39048183199992],[-71.25088861699993,-35.38706298899996],[-71.25092837999995,-35.38340684499991],[-71.25511160899993,-35.37876292799996],[-71.25466528099992,-35.37533220699993],[-71.25566342099995,-35.373479105999934],[-71.2534019279999,-35.37130827999994],[-71.24455309099994,-35.37344270299991],[-71.23597194599995,-35.378510321999954],[-71.23169922599993,-35.376475427999935],[-71.22369103099993,-35.376330166999935],[-71.21797120699995,-35.38029360799993],[-71.20226494899993,-35.376204420999954],[-71.19752472399995,-35.37202681999992],[-71.19468334499993,-35.371591690999935],[-71.18966466299992,-35.37356685099991],[-71.1866588879999,-35.37657361999993],[-71.18451714899993,-35.37614361399994],[-71.17688810999994,-35.37982865199996],[-71.17269099799995,-35.38535813599992],[-71.16986430399993,-35.385715459999915],[-71.16442493599993,-35.389639823999914],[-71.15811227599994,-35.39171560199992],[-71.15647500099993,-35.39170862099991],[-71.15173149099991,-35.387093043999926],[-71.14960240199991,-35.377383935999944],[-71.14514251799994,-35.373335211999915],[-71.1473296069999,-35.37105010699992],[-71.14676520199993,-35.36615255799995],[-71.15410201599991,-35.36231998599993],[-71.1627502309999,-35.361355028999924],[-71.18217970199993,-35.34608628099994],[-71.18291085899995,-35.34071561999991],[-71.18935654799992,-35.33526994999994],[-71.20027713299993,-35.3342073739999],[-71.21183396599992,-35.33688140599992],[-71.21685642499995,-35.33360856599995],[-71.2490677749999,-35.32610296999991],[-71.25224829599995,-35.32645508399992],[-71.25591247599993,-35.32352008799995],[-71.25613300799995,-35.32109103699992],[-71.25373339999993,-35.31796716699995],[-71.2576077249999,-35.312431989999936],[-71.2665246219999,-35.309614805999956]]]}},{"type":"Feature","properties":{"cut":7107,"comuna":"PENCAHUE"},"geometry":{"type":"Polygon","coordinates":[[[-71.7497067779999,-35.14548100299993],[-71.77019905299994,-35.149995403999924],[-71.76917645499992,-35.156062311999904],[-71.77093756799991,-35.15980708799992],[-71.7695922179999,-35.16214332799996],[-71.76985185399991,-35.164855754999905],[-71.77604064699995,-35.17187119399995],[-71.78580691299993,-35.17316083399993],[-71.78479980299994,-35.17659019599995],[-71.78541235099993,-35.18369922499994],[-71.7904199159999,-35.18959001799993],[-71.79350296399991,-35.18863974199991],[-71.79423274899995,-35.18669596899991],[-71.79751985799993,-35.18706993699993],[-71.8028762539999,-35.19062520299991],[-71.8066445149999,-35.19659389099991],[-71.8260293109999,-35.20075351199995],[-71.8272329909999,-35.20282434099994],[-71.8318860089999,-35.20402306299991],[-71.83314845799993,-35.20777848999995],[-71.84588266899993,-35.215875352999944],[-71.85520415399992,-35.213866451999934],[-71.85708026399993,-35.211172691999934],[-71.85619849599993,-35.20754619499991],[-71.85701549399994,-35.205737653999904],[-71.85944949399993,-35.204613482999946],[-71.86528553099993,-35.20605820499992],[-71.86960360599994,-35.21201176599993],[-71.87745840299993,-35.213614425999936],[-71.87818515099991,-35.21638421999995],[-71.87326625199995,-35.22551616599992],[-71.87291508899995,-35.23009203499993],[-71.8781689889999,-35.23135224999993],[-71.88168805899994,-35.24073073599993],[-71.88818083299992,-35.2440510749999],[-71.88849896699992,-35.24710580399994],[-71.89353439299992,-35.24598757799993],[-71.89580931299992,-35.24744707799994],[-71.89815383699994,-35.25203599799994],[-71.89708000099995,-35.25835000099994],[-71.91145690499991,-35.26481764399995],[-71.91520101499992,-35.272871453999926],[-71.92259897299994,-35.2747538669999],[-71.92518505599992,-35.27968649299993],[-71.93063643399995,-35.280409826999914],[-71.93132960499992,-35.28357384299994],[-71.93831165799992,-35.28839945999994],[-71.94392710999995,-35.28824849199992],[-71.94686870599992,-35.29138285199991],[-71.95337707699991,-35.293700068999954],[-71.95753552299993,-35.29188084999993],[-71.96319999999992,-35.29212999999993],[-71.9634373749999,-35.290483913999935],[-71.96676499699993,-35.28839134499992],[-71.9690111569999,-35.28856225299995],[-71.9747057699999,-35.2921748789999],[-71.98030403899992,-35.29009438299994],[-71.98978327999993,-35.29069081099993],[-71.98882718699991,-35.293061275999946],[-71.9897384649999,-35.294973428999924],[-71.99371873399991,-35.29694769999992],[-71.99760699299992,-35.301073491999944],[-71.99752216099995,-35.30634258799995],[-72.00341576599993,-35.308965678999925],[-72.01124139799992,-35.31708703299995],[-72.0096484099999,-35.32678447999996],[-72.01386009599992,-35.329828465999924],[-72.01359928399995,-35.33364373999996],[-72.0155906359999,-35.33503357099994],[-72.01920158099995,-35.33470344099993],[-72.02162875599993,-35.336981978999916],[-72.01933871799991,-35.34204383899993],[-72.0133747129999,-35.347645729999954],[-72.01705559299995,-35.355380371999956],[-72.01301983699994,-35.35986486899992],[-72.01032024499995,-35.360274347999905],[-72.00674535899992,-35.35869770799991],[-72.00066641599994,-35.36135400599994],[-71.99879981999993,-35.36659406599995],[-71.99566759699991,-35.36905226299996],[-71.99668663299991,-35.37231630899993],[-72.00223001899991,-35.373606846999905],[-72.00235505799992,-35.37697962599992],[-72.00563551399995,-35.379469694999955],[-72.01299626899993,-35.37993306499993],[-72.0156706869999,-35.37742851399992],[-72.01845583399995,-35.37719852799995],[-72.0290053089999,-35.38381590599994],[-72.03149966899991,-35.37952326399994],[-72.05040641799991,-35.373540669999954],[-72.05329306699991,-35.37081611499991],[-72.0595388239999,-35.37581679999994],[-72.06242246799991,-35.38009524899991],[-72.06516260899991,-35.38005777199993],[-72.06887238999991,-35.37667044199992],[-72.07688471199992,-35.37796333499995],[-72.08018615099991,-35.376211224999906],[-72.08241833299991,-35.37260725199991],[-72.0917278739999,-35.37475136099994],[-72.0986099619999,-35.380982339999946],[-72.0992093939999,-35.384517872999936],[-72.10515655599994,-35.39257989299995],[-72.10013553499994,-35.399098815999935],[-72.09983085599993,-35.403396578999946],[-72.09814843899994,-35.40424189399994],[-72.09785783399991,-35.40658358499991],[-72.0997747429999,-35.408354921999944],[-72.10048126499993,-35.41136048099992],[-72.09781998199992,-35.41439328799993],[-72.0979504899999,-35.41709877199992],[-72.09515453999995,-35.41834213099992],[-72.09567910599992,-35.420297896999955],[-72.09448813199992,-35.42235174699994],[-72.0984493439999,-35.42908151899991],[-72.09647552099995,-35.4319711519999],[-72.10000422999991,-35.435061883999936],[-72.10297973399992,-35.44027887699991],[-72.09919850299991,-35.442322642999954],[-72.09490159699993,-35.44246159399995],[-72.09245097399992,-35.43418064999992],[-72.08470151799992,-35.42540551399992],[-72.07702615099993,-35.41853142299993],[-72.07053628299991,-35.41798115899991],[-72.06810483899994,-35.41933108699993],[-72.06756002599991,-35.424325504999956],[-72.0624138359999,-35.428792770999905],[-72.0603169279999,-35.43252416099995],[-72.05516848999991,-35.43325575999995],[-72.05170149399993,-35.43128258299993],[-72.03964135899992,-35.43608104499992],[-72.03981347899992,-35.439726281999924],[-72.03157905299992,-35.4477192839999],[-72.02957354799992,-35.44834215599991],[-72.01874560199991,-35.445965893999926],[-72.01253477499995,-35.45107318099991],[-71.9974291289999,-35.453138364999916],[-71.98820921999993,-35.46206899799995],[-71.9762815169999,-35.462149265999926],[-71.97278344499995,-35.46406751899991],[-71.97166589299991,-35.46887537199996],[-71.96674380499991,-35.47014155099993],[-71.94138952499992,-35.47149258199994],[-71.93652350299993,-35.4685483099999],[-71.9328784029999,-35.46452933499995],[-71.92597996299992,-35.46340877599994],[-71.91960926899992,-35.46526635999993],[-71.91355886399992,-35.46921982099991],[-71.89931642199991,-35.46919094799995],[-71.89135924199991,-35.467204729999935],[-71.88687790299991,-35.46363272399992],[-71.88041988499992,-35.46414035399994],[-71.87766566899995,-35.46055616299992],[-71.8737887289999,-35.458132021999916],[-71.85450941399995,-35.459203989999935],[-71.85055702799991,-35.457467537999946],[-71.84730006799992,-35.45937439499994],[-71.83611140699992,-35.46019575099996],[-71.82975432499995,-35.459336090999955],[-71.82468642799995,-35.460620529999915],[-71.81619773999995,-35.455742811999926],[-71.81300658099991,-35.45604288499993],[-71.80537928299992,-35.45377014099995],[-71.79953729199991,-35.45603663499992],[-71.7930513419999,-35.456525411999905],[-71.78995224399995,-35.45816387799994],[-71.7884030159999,-35.461433464999914],[-71.78481353299992,-35.46263191799994],[-71.77447142299991,-35.461265907999916],[-71.7698889099999,-35.45674616999992],[-71.76769813699991,-35.456295095999906],[-71.7616439329999,-35.46045728999991],[-71.75261710599995,-35.46192957099993],[-71.74934313999995,-35.46498735699993],[-71.74653354599991,-35.465264447999914],[-71.73973340599991,-35.46284960999992],[-71.73478228599993,-35.45327306999991],[-71.72380596799991,-35.44759138799992],[-71.7203785019999,-35.437680291999925],[-71.70165664299992,-35.41726589199993],[-71.69520854599995,-35.41215817199992],[-71.69391314799992,-35.40785646699993],[-71.69009462199995,-35.40260198199991],[-71.69070774999994,-35.40078336499994],[-71.6865603789999,-35.39186969699995],[-71.6824721939999,-35.389485115999946],[-71.67872730599993,-35.389562981999916],[-71.67606097999993,-35.38821937699993],[-71.6751984089999,-35.38539007899993],[-71.66870429799991,-35.3782051899999],[-71.6677092029999,-35.372401502999935],[-71.66409076899993,-35.36652687499992],[-71.66458074999991,-35.35309031399993],[-71.66331792299991,-35.34726329199992],[-71.65581499899992,-35.3368792089999],[-71.6568672969999,-35.33167446899995],[-71.65568994799992,-35.32253001999993],[-71.64841328799992,-35.317760921999934],[-71.6522027929999,-35.31401345499995],[-71.64256199599993,-35.31183423899995],[-71.63854460699991,-35.31395460299996],[-71.6346953389999,-35.312626364999915],[-71.63478277799993,-35.3068725089999],[-71.6305792739999,-35.30230981699992],[-71.63063103999991,-35.30043051599995],[-71.6242438349999,-35.300249584999904],[-71.61902325299991,-35.29486509299994],[-71.60961513799992,-35.29269073099994],[-71.6049520709999,-35.28740897299991],[-71.6011042149999,-35.28724185699991],[-71.59674771699991,-35.289206958999955],[-71.59054005999991,-35.28895036699993],[-71.58694534299991,-35.29359100599993],[-71.58304746699991,-35.29280958399994],[-71.57671311999991,-35.29466534099993],[-71.57324142699991,-35.29284448599992],[-71.57114844699993,-35.288159726999936],[-71.57144352899991,-35.28446459799994],[-71.56911243499991,-35.28076276699994],[-71.57353165699993,-35.27721510799995],[-71.56636984599993,-35.26433996499992],[-71.56934134599993,-35.260182623999924],[-71.56867451599993,-35.25523776099993],[-71.56675687699993,-35.25380563099992],[-71.56464239999991,-35.24904733099993],[-71.56186015199995,-35.247261341999945],[-71.56151353299992,-35.240168027999914],[-71.55852974499993,-35.23487035499994],[-71.55666998499993,-35.22669999799996],[-71.56102660199991,-35.22159037599994],[-71.56365042599992,-35.22082522499994],[-71.56659117799995,-35.21216163099996],[-71.57580455599992,-35.21087366899991],[-71.57683899199992,-35.20640829899992],[-71.57877317999993,-35.20591749999994],[-71.5893351929999,-35.21229084599992],[-71.59391190499991,-35.21799010199993],[-71.59434524699992,-35.22064326699996],[-71.5988381919999,-35.22478385499994],[-71.6138780629999,-35.224874934999946],[-71.6292227109999,-35.227992360999906],[-71.63065491599991,-35.22530971899994],[-71.62917296899991,-35.220971764999945],[-71.62991252699993,-35.21920073799993],[-71.6373833959999,-35.21552820599993],[-71.6385380939999,-35.213831386999914],[-71.64430158199991,-35.21293403799996],[-71.6482943119999,-35.21580602499995],[-71.6509804239999,-35.215884838999955],[-71.65398745199991,-35.211655228999916],[-71.66399914599992,-35.21009319199993],[-71.66733282099995,-35.20434201199993],[-71.6704919789999,-35.203515298999946],[-71.67295133699992,-35.19794420099993],[-71.67160507799991,-35.188866255999926],[-71.67023231499991,-35.18662545399991],[-71.67245129899993,-35.17268766199993],[-71.67532714599992,-35.171991679999906],[-71.67657248899991,-35.16907366099991],[-71.67901493699992,-35.16815936699993],[-71.67928059299993,-35.161303767999925],[-71.6814187679999,-35.160742342999924],[-71.68963259899994,-35.16438169599991],[-71.6956317769999,-35.164880259999904],[-71.69983436299992,-35.16263855799991],[-71.7039659749999,-35.162133421999954],[-71.70590141799994,-35.15858031999994],[-71.7106166559999,-35.15799309599993],[-71.71609420199991,-35.15009360799991],[-71.71967999999993,-35.150579999999934],[-71.72257461799995,-35.14843401099995],[-71.72568628199991,-35.148776924999936],[-71.72884084599991,-35.14664125899992],[-71.73468963099992,-35.147403967999935],[-71.73672861499995,-35.14574062299994],[-71.74057459599993,-35.14799351999994],[-71.7497067779999,-35.14548100299993]]]}},{"type":"Feature","properties":{"cut":7109,"comuna":"SAN CLEMENTE"},"geometry":{"type":"Polygon","coordinates":[[[-71.2506107829999,-35.37131972199995],[-71.2534019279999,-35.37130827999994],[-71.25566342099995,-35.373479105999934],[-71.25466528099992,-35.37533220699993],[-71.25511160899993,-35.37876292799996],[-71.25092837999995,-35.38340684499991],[-71.25088861699993,-35.38706298899996],[-71.24882840499993,-35.39048183199992],[-71.24906087399995,-35.40157440899992],[-71.25249591099993,-35.40295775599992],[-71.24915095199992,-35.40674707499994],[-71.25000796899991,-35.41411851099991],[-71.24857893699993,-35.41679540699994],[-71.2503291729999,-35.422374325999954],[-71.24868039899991,-35.424938132999955],[-71.2483743969999,-35.43022182799996],[-71.24970106499995,-35.431774643999915],[-71.25172392799993,-35.430763354999954],[-71.25037130399994,-35.433781395999915],[-71.25770173099994,-35.43840413399994],[-71.26123906099991,-35.44436407499995],[-71.26154102899994,-35.448757471999954],[-71.26691351799991,-35.45356502299995],[-71.26739782099992,-35.45643152799994],[-71.27008195999991,-35.45753490299995],[-71.2719130289999,-35.46615427699993],[-71.2756165209999,-35.46889696799991],[-71.28297173599992,-35.46773937499995],[-71.29364000699991,-35.46282700699993],[-71.29370757299995,-35.457435124999904],[-71.29491244099995,-35.456447675999925],[-71.3008797199999,-35.45778984599991],[-71.31179779799993,-35.45426836699994],[-71.31240467999993,-35.452449361999925],[-71.31044733199991,-35.451986561999945],[-71.31285962399994,-35.445540158999904],[-71.31227292799991,-35.44061604199993],[-71.3146976349999,-35.439943059999905],[-71.31826740299994,-35.43653021099993],[-71.32419803899995,-35.44043202499995],[-71.33629189599992,-35.439896510999915],[-71.34955070799992,-35.44203956599995],[-71.35957405199991,-35.44098159799995],[-71.36760950099995,-35.443459843999904],[-71.37746663799993,-35.44309672399993],[-71.3799798519999,-35.444982472999925],[-71.39017632399992,-35.444652238999936],[-71.3938434929999,-35.44192012599996],[-71.40402403099995,-35.43909774399992],[-71.40670160699995,-35.434098099999915],[-71.41142479299992,-35.431270250999944],[-71.41465679799995,-35.43142687699992],[-71.42288939699995,-35.435960451999904],[-71.43557022699991,-35.430433501999914],[-71.43992724799995,-35.42644345799994],[-71.44890201299995,-35.42819292199994],[-71.46520269199993,-35.424449343999925],[-71.4709606049999,-35.420195135999904],[-71.47487454499992,-35.42053457199995],[-71.47668972899993,-35.422588591999954],[-71.48255480499995,-35.42476985299993],[-71.48989405999993,-35.42485482099994],[-71.49301856299991,-35.42332871199994],[-71.49582789699991,-35.432205807999935],[-71.49325033699995,-35.43344423499991],[-71.49256955599992,-35.43519143799995],[-71.49793326699995,-35.4518426379999],[-71.50505486799995,-35.45077118799992],[-71.53296626399992,-35.49638857399992],[-71.54185880299991,-35.48834475499996],[-71.54613625999991,-35.49374084599992],[-71.55904652799995,-35.51098576299995],[-71.55401546099995,-35.51336664299993],[-71.56159606799991,-35.525422018999905],[-71.5643166079999,-35.52442512399995],[-71.56879594199995,-35.53075329999996],[-71.57073905699991,-35.53103472999993],[-71.57129109199991,-35.53322859299993],[-71.57028135699994,-35.53397891399993],[-71.5763445469999,-35.54491684399994],[-71.57456228599995,-35.545745171999954],[-71.58489831499992,-35.56817164799992],[-71.58675123899991,-35.567606345999934],[-71.58680694899994,-35.569996439999954],[-71.58296816199993,-35.57355590099991],[-71.57384409899993,-35.57479048499994],[-71.56928536599992,-35.57693847899992],[-71.57455312899992,-35.58587359699993],[-71.5582847949999,-35.58789705099991],[-71.55029010899995,-35.59026384999993],[-71.5408565429999,-35.59499508999994],[-71.5299954429999,-35.59714634399995],[-71.5173007109999,-35.60223267899994],[-71.49966128099993,-35.6057449029999],[-71.48059074199995,-35.603529943999945],[-71.46050869699991,-35.606688541999915],[-71.4488575279999,-35.61063399099993],[-71.42883230399991,-35.61021554899992],[-71.4137600009999,-35.61222177299993],[-71.38844705899993,-35.61921662799995],[-71.37696195399991,-35.62595588499994],[-71.37077146599995,-35.63222654099991],[-71.35196099799992,-35.658663987999944],[-71.34911611899992,-35.66795751799992],[-71.33783789599994,-35.67736096099992],[-71.33293297099993,-35.679025887999956],[-71.3152577379999,-35.679557539999905],[-71.28413199199991,-35.676039320999905],[-71.26443416699993,-35.67871644199994],[-71.25526847799995,-35.68283976099991],[-71.24618487599992,-35.68992425999994],[-71.22661870999991,-35.71201957199992],[-71.19950132799994,-35.726080192999916],[-71.19299105099992,-35.72611675499991],[-71.18255952499993,-35.72303438599994],[-71.15681620999993,-35.72483641899993],[-71.14538073099993,-35.72378558299994],[-71.13954137999991,-35.720596868999905],[-71.12668130399993,-35.71634403399992],[-71.11289018499991,-35.70514648899996],[-71.10247839699991,-35.70469758299993],[-71.07796040199992,-35.70850642499994],[-71.07505199299993,-35.71277413899992],[-71.06650779699993,-35.71638200299992],[-71.06289015199991,-35.72317866599991],[-71.05081660499991,-35.73609746199992],[-71.04944599099991,-35.74324166899993],[-71.04510513999992,-35.748481763999905],[-71.04288734699992,-35.754140321999955],[-71.0441791689999,-35.75828827299995],[-71.0431174069999,-35.763733937999916],[-71.0385403759999,-35.77150760299992],[-71.03395765599993,-35.773540785999955],[-71.03311986199992,-35.77802001899994],[-71.0370920549999,-35.785758631999954],[-71.03592340499995,-35.78899674899992],[-71.03685191299991,-35.793614659999946],[-71.03416751499992,-35.79663977699994],[-71.03616382399991,-35.80028702699991],[-71.03484175799991,-35.80298121699991],[-71.03617909999991,-35.804566235999914],[-71.03615214999991,-35.80792748899995],[-71.03253954599995,-35.81220686799992],[-71.02761844999992,-35.81531395799993],[-71.0246844319999,-35.81965711499993],[-71.0240238049999,-35.82394222499994],[-71.02105428899995,-35.829431823999926],[-71.01808462699995,-35.82885505999991],[-71.0153734239999,-35.832409998999935],[-71.01154325199991,-35.829453574999945],[-71.00585036899992,-35.82952368799994],[-71.00102888599992,-35.832424172999936],[-70.99750888999995,-35.836907150999934],[-70.99820206099992,-35.84367635299992],[-71.0003129449999,-35.84926884299995],[-71.00115181599995,-35.86304189999993],[-70.9982854829999,-35.86454650799993],[-70.9939799409999,-35.86423781299993],[-70.9889650209999,-35.869188281999925],[-70.98097256199992,-35.870917481999925],[-70.98010002199993,-35.87533001699995],[-70.97459216199991,-35.88490202299994],[-70.96579140799992,-35.891815050999924],[-70.96582761699995,-35.89800317399994],[-70.96217171899991,-35.901361729999905],[-70.95854271099995,-35.909615568999925],[-70.95109857299991,-35.91673356599995],[-70.9442743429999,-35.917718899999954],[-70.93919561399991,-35.92365302899992],[-70.9404743799999,-35.92864629999991],[-70.94001533699992,-35.93572837799991],[-70.93507036199992,-35.941329924999934],[-70.92599946299993,-35.94413253599993],[-70.9201846599999,-35.9473859549999],[-70.90750129599991,-35.94743198999993],[-70.9014603359999,-35.95020191999993],[-70.8940464609999,-35.956309742999906],[-70.89043868199991,-35.957269571999916],[-70.88698146999991,-35.96535295599995],[-70.88519981399992,-35.97607791599995],[-70.87623031599992,-35.982133467999915],[-70.87244146899991,-35.99080905699992],[-70.85008513999992,-35.99296386899994],[-70.83570537399993,-35.9836825669999],[-70.83270663099995,-35.9740982319999],[-70.81806627799995,-35.971627362999925],[-70.80629178999993,-35.97358374799995],[-70.80220181699991,-35.97082510899992],[-70.78943932899995,-35.97026918899991],[-70.78622202199995,-35.96673493399993],[-70.78244895799992,-35.96516216799995],[-70.77403183399991,-35.973008482999944],[-70.7681223749999,-35.97240658699991],[-70.76057605499994,-35.97444405299996],[-70.75412571599992,-35.977263809999954],[-70.74930085099993,-35.98215829299994],[-70.74174000799991,-35.98259000699994],[-70.72228648999993,-35.98051310599993],[-70.70903134699995,-35.984211099999925],[-70.6878824499999,-35.98381565099993],[-70.68109826099993,-35.98601553199995],[-70.67117274599991,-35.98458124299992],[-70.66600255599991,-35.98740091199994],[-70.66129804999991,-35.98341594599992],[-70.65657152499995,-35.9843214359999],[-70.65173305099995,-35.98211601799994],[-70.64366865799991,-35.98745845299993],[-70.6362104399999,-35.98807595399995],[-70.63320561899991,-35.995028808999905],[-70.62765487299993,-35.99932396499992],[-70.61762443299995,-35.99831405799995],[-70.60935671199991,-35.992162168999926],[-70.60728089699995,-35.99338011899994],[-70.60472046599995,-35.99950513999994],[-70.6009229419999,-36.00342773299991],[-70.59633613199992,-36.004060145999915],[-70.5889394479999,-36.00075650499991],[-70.57816883099991,-36.00286364999994],[-70.57554502999994,-36.00383647099994],[-70.57269988999991,-36.00731113199993],[-70.5774082659999,-36.00816015099991],[-70.58079905299991,-36.010788559999924],[-70.58100806699991,-36.01237129499992],[-70.57828378799991,-36.01648228899995],[-70.58027541999991,-36.020911149999904],[-70.58482124699992,-36.02399591899996],[-70.5880096329999,-36.02211928399993],[-70.59574995999992,-36.023940025999934],[-70.6106549509999,-36.022484489999954],[-70.6110305169999,-36.03271691099991],[-70.61630817199995,-36.03731469099995],[-70.62083645599995,-36.03941269999996],[-70.60273762599991,-36.05062313199994],[-70.59950454199992,-36.05744112499991],[-70.60303341399992,-36.06599359599994],[-70.60676473799992,-36.06969763399991],[-70.61062102699992,-36.07951103399995],[-70.60860002599992,-36.08242005499994],[-70.60960535299995,-36.08786263799993],[-70.62047453499991,-36.09097687399992],[-70.62385000699993,-36.090000019999934],[-70.62210538199992,-36.096636943999954],[-70.6249600349999,-36.101639974999955],[-70.62362053499993,-36.10757832199994],[-70.62042534099993,-36.10941657199993],[-70.61212002499991,-36.1096000199999],[-70.60850215099993,-36.11634887099996],[-70.58295998299991,-36.11527000099994],[-70.5747837319999,-36.119237856999916],[-70.5710234739999,-36.12410782399991],[-70.56981032099992,-36.13246882899995],[-70.5629267569999,-36.135334490999924],[-70.56047115299992,-36.13841827299996],[-70.55537603499994,-36.13935002399995],[-70.5537896269999,-36.138075629999946],[-70.55030609599993,-36.14110230499995],[-70.54482381799994,-36.142644195999935],[-70.5335166189999,-36.141958910999904],[-70.52346577599991,-36.1471556539999],[-70.52266627699993,-36.15200975399995],[-70.5185545679999,-36.15183843299991],[-70.5100456159999,-36.15663542599992],[-70.50747579799992,-36.16177506199995],[-70.50833240399993,-36.1632598459999],[-70.50730447699993,-36.167542875999914],[-70.49879552399995,-36.170284014999936],[-70.48971550099992,-36.179135609999946],[-70.48172051199992,-36.174795472999904],[-70.46967711199994,-36.17192157799991],[-70.4604766839999,-36.17313936799991],[-70.45579390499995,-36.17131194199993],[-70.4483128789999,-36.17251118999991],[-70.44353714899995,-36.16803799999991],[-70.44214531599994,-36.163602487999924],[-70.42101570299991,-36.1562927839999],[-70.42135834499993,-36.14315815899994],[-70.41781770699993,-36.13767588099995],[-70.41861720599991,-36.130194855999946],[-70.42229288099992,-36.125241366999944],[-70.42004488299995,-36.11511859099994],[-70.41593317399992,-36.11209191599994],[-70.41479103299991,-36.108551277999936],[-70.41541920999992,-36.104610890999936],[-70.4248418759999,-36.099699682999926],[-70.42569848199992,-36.09610193799995],[-70.42329998499991,-36.0912478379999],[-70.41833167099992,-36.08936330499995],[-70.4174750649999,-36.075543394999954],[-70.4098798249999,-36.05515617299994],[-70.40668182899992,-36.052643462999924],[-70.4023987999999,-36.05218660599991],[-70.39817287699992,-36.052700569999956],[-70.3948035599999,-36.054870637999954],[-70.39251927799995,-36.05412824599995],[-70.38726542799992,-36.05087314399992],[-70.38660043399994,-36.047182549999945],[-70.3776714409999,-36.04636168499991],[-70.37127544999993,-36.043449224999904],[-70.36921959499995,-36.038252481999905],[-70.37064727199993,-36.03277020399992],[-70.37178941299993,-36.03174227699992],[-70.3761199999999,-36.031999999999925],[-70.37650999999994,-36.02660999999995],[-70.38052999999991,-36.02526999999992],[-70.38213999999994,-36.014899999999955],[-70.38246843399992,-36.000733140999955],[-70.37941887399995,-35.99712282899992],[-70.37487916599991,-35.99462443999994],[-70.3806318259999,-35.98947837399993],[-70.39349136099992,-35.981705666999915],[-70.40397949399994,-35.98027549299991],[-70.40777919399994,-35.98118067899992],[-70.4172970379999,-35.97832532599995],[-70.42093761299992,-35.976088632999904],[-70.42267461999995,-35.97177704899991],[-70.42053310499995,-35.96780334899995],[-70.41691632399994,-35.965188321999904],[-70.41702189999995,-35.96118614699992],[-70.4154977739999,-35.95929543299991],[-70.41103667599992,-35.95664129799991],[-70.40770542999991,-35.956236788999945],[-70.40559026099993,-35.95341177899991],[-70.39177731799992,-35.95205845599992],[-70.38685183399991,-35.939666222999904],[-70.3788925369999,-35.937496154999906],[-70.37777418999991,-35.93316553599993],[-70.3652534659999,-35.92463278799994],[-70.3705234809999,-35.92258962599993],[-70.37620136699991,-35.92379997699993],[-70.3845242889999,-35.92261067699991],[-70.3881058099999,-35.924608993999925],[-70.39331682999995,-35.92429966399993],[-70.39694312799992,-35.92250792899995],[-70.4083930939999,-35.92260310799992],[-70.41130750199994,-35.92392413999994],[-70.41029666299994,-35.921789331999946],[-70.41189090199993,-35.918434292999905],[-70.42331945299992,-35.91520774399993],[-70.42534199499994,-35.912281005999944],[-70.42619860099995,-35.90495464599991],[-70.4250802549999,-35.900143374999914],[-70.4226294099999,-35.89683592499995],[-70.4233469479999,-35.88941079099993],[-70.41940670399993,-35.885710891999906],[-70.42201074999991,-35.879608626999925],[-70.4216776259999,-35.876610505999906],[-70.40594462999991,-35.86687375199995],[-70.39732146199992,-35.867206875999955],[-70.38963104499993,-35.870895040999926],[-70.38082465899993,-35.86675715799993],[-70.37942077699995,-35.86523430299991],[-70.3800870259999,-35.856544511999914],[-70.37789986899992,-35.84985627799995],[-70.36944131799993,-35.8415729429999],[-70.3616301859999,-35.84103668999995],[-70.35735365599993,-35.84285785199995],[-70.35615678699992,-35.84063067599993],[-70.35013675099992,-35.83675215499994],[-70.3466151479999,-35.837109073999954],[-70.3444379419999,-35.83515315699992],[-70.33827513799991,-35.83358271299994],[-70.33045563399992,-35.82814861799994],[-70.32745156399994,-35.822140479999916],[-70.32281161499992,-35.820088194999926],[-70.31627177099995,-35.81965414299992],[-70.31394812299993,-35.81463030599991],[-70.31174712199993,-35.8132323719999],[-70.31843935599994,-35.8105554789999],[-70.32328750799991,-35.810549529999946],[-70.3253397929999,-35.8073967439999],[-70.32950384899993,-35.805047026999944],[-70.32908744399992,-35.80251884899991],[-70.33708838199993,-35.795380465999926],[-70.34056834299992,-35.796005074999925],[-70.3470315539999,-35.80097219999993],[-70.35785810199991,-35.801329118999945],[-70.36622785599991,-35.791418663999934],[-70.37899366399995,-35.787584756999934],[-70.37949886699994,-35.78578215199991],[-70.37691957599992,-35.78404491799995],[-70.37590036499995,-35.777647532999936],[-70.3791423799999,-35.77306707099996],[-70.37791100999993,-35.76971084099995],[-70.3799858989999,-35.766874522999956],[-70.37469397799993,-35.764344680999955],[-70.37122948299992,-35.75783637899991],[-70.35900293899994,-35.75457904199993],[-70.35984524999992,-35.75182362299995],[-70.35814181199993,-35.749736682999924],[-70.36154126899993,-35.74737376999991],[-70.36138422499994,-35.74407298199992],[-70.36292611499994,-35.74131756599991],[-70.3679087079999,-35.73916177399991],[-70.36976944499992,-35.73700740999993],[-70.36704734199992,-35.731255776999944],[-70.36935066099994,-35.72494306699991],[-70.36825134899993,-35.72191353699992],[-70.37245109799994,-35.71889102699993],[-70.37320776699994,-35.716920832999904],[-70.3722797769999,-35.71116872399995],[-70.3755334519999,-35.70427209399992],[-70.3745578729999,-35.700292445999935],[-70.38016507299994,-35.69935255899992],[-70.38452186599994,-35.694935168999905],[-70.38733438799994,-35.691148969999915],[-70.38596381899993,-35.68800808199995],[-70.39241334799993,-35.68876058699993],[-70.3977000349999,-35.68771980999992],[-70.40011280899995,-35.681966272999944],[-70.40522079699991,-35.67837447699992],[-70.40644859899993,-35.67337046999995],[-70.40574903799995,-35.66967278799996],[-70.3976255579999,-35.664892926999926],[-70.39759700399992,-35.663565186999904],[-70.4028365769999,-35.65851834999995],[-70.40860724599992,-35.65688223299992],[-70.40796948399992,-35.65035573299991],[-70.41132934899991,-35.64448571799994],[-70.41781385699994,-35.644043137999915],[-70.42306580299993,-35.640639080999904],[-70.4225328039999,-35.63778372799993],[-70.41740443099991,-35.62955516599993],[-70.41935859999995,-35.622438529999954],[-70.43045139599991,-35.605628389999936],[-70.42921907099992,-35.59932252699991],[-70.43561323699993,-35.594650043999934],[-70.44454824899992,-35.59566372699993],[-70.44817074699995,-35.59875755099995],[-70.4518962759999,-35.59994522699992],[-70.46203286999992,-35.599094349999916],[-70.4700882539999,-35.59322594699995],[-70.47234503499993,-35.592862253999954],[-70.4845852599999,-35.58156346399994],[-70.48946996199993,-35.57870203199991],[-70.48999061299992,-35.56978790699992],[-70.4985543809999,-35.56755285399993],[-70.49873603799995,-35.56626206199991],[-70.4919714369999,-35.5564298619999],[-70.49405556799991,-35.546824056999924],[-70.49767397799991,-35.54050453699995],[-70.4952297399999,-35.53806984199991],[-70.49489528299995,-35.531127073999926],[-70.49781674499991,-35.521454767999955],[-70.49386159399995,-35.513806625999905],[-70.4981433069999,-35.51321523899992],[-70.49999019299992,-35.51155346299993],[-70.5009626399999,-35.50803503499992],[-70.51115966499992,-35.50047297499992],[-70.5243951349999,-35.49738413599994],[-70.5301273579999,-35.49438924499992],[-70.53142644999991,-35.479994983999916],[-70.53505227799991,-35.475273203999905],[-70.53990161799993,-35.46495407999993],[-70.5459323529999,-35.464088304999905],[-70.55361186199991,-35.46900437499994],[-70.5558287739999,-35.47220444599992],[-70.5567271889999,-35.48105442099995],[-70.55851309899992,-35.48293190499993],[-70.57584013399992,-35.48317194899994],[-70.58032137299995,-35.48150332299991],[-70.58179676199995,-35.47716083499995],[-70.58365438699991,-35.47633678799991],[-70.5872406659999,-35.47642294199994],[-70.59217346699995,-35.478690360999906],[-70.6003795499999,-35.48577893099991],[-70.60280911799993,-35.497342042999946],[-70.61229483299991,-35.50414646699994],[-70.61920855799991,-35.50629023199991],[-70.61928235799991,-35.515192105999915],[-70.63077836499991,-35.514257838999924],[-70.63889140299995,-35.51510125099992],[-70.64917283999995,-35.518288397999925],[-70.65101016199992,-35.522004635999906],[-70.65581938999992,-35.52417234099994],[-70.66477496399995,-35.523803880999935],[-70.6690979039999,-35.52901496399994],[-70.67180525499992,-35.527806159999955],[-70.67691229899992,-35.52182428099991],[-70.68846648199991,-35.5227404229999],[-70.69424184099995,-35.52595397399995],[-70.69650413799991,-35.52874782099991],[-70.71189131199992,-35.534080779999954],[-70.71443363599991,-35.53766747499992],[-70.72121567099992,-35.54079868799994],[-70.72217461499991,-35.54356339099991],[-70.73448704999993,-35.544231287999935],[-70.73860361899995,-35.55245425499993],[-70.7500150269999,-35.55811905099995],[-70.7465223339999,-35.56437784099995],[-70.7458718819999,-35.568200720999926],[-70.7470444249999,-35.57153412099996],[-70.74969754999995,-35.57242175499994],[-70.75402102299995,-35.568872324999916],[-70.75847563899993,-35.56218835399994],[-70.7606271439999,-35.560726899999906],[-70.7652669819999,-35.56101314199992],[-70.7703798899999,-35.55476853999994],[-70.7668470289999,-35.54529355699992],[-70.76320077399993,-35.54467958799995],[-70.76100830099995,-35.541960494999955],[-70.76165873399992,-35.53665300499995],[-70.76717704499993,-35.53375300999994],[-70.76941164699991,-35.530805663999956],[-70.7752598209999,-35.5285405809999],[-70.77531450299995,-35.521947936999936],[-70.77745980599991,-35.519482911999944],[-70.78982936299991,-35.51822910099992],[-70.7867825429999,-35.50773483899991],[-70.7885125919999,-35.50498151599993],[-70.80163299499992,-35.50503029399994],[-70.81562716899992,-35.50964411499996],[-70.82060651899991,-35.50839117499993],[-70.82263224099995,-35.502415121999945],[-70.82629497099992,-35.49900768899994],[-70.82908387499992,-35.50039414799994],[-70.8464706709999,-35.50198337199993],[-70.8494243689999,-35.50181719299991],[-70.85954829699995,-35.497059614999955],[-70.86726221099991,-35.49834521999992],[-70.87323459899994,-35.496457489999955],[-70.88375122299993,-35.496052052999914],[-70.88693209999991,-35.49954134299992],[-70.8929567799999,-35.497812163999924],[-70.89786092999992,-35.49949734099994],[-70.9022565969999,-35.499276901999906],[-70.90585504899991,-35.49687291899994],[-70.91463347399991,-35.49947886599995],[-70.92120735599991,-35.49845603399996],[-70.92692969399991,-35.50087053999994],[-70.93453767799991,-35.49974742499995],[-70.93857941199991,-35.49602918599993],[-70.94605721599993,-35.493681816999924],[-70.95524200799991,-35.48488200999992],[-70.96372120399991,-35.484025506999956],[-70.96951113999995,-35.480510764999906],[-70.97498261299995,-35.48096658599991],[-70.98828639099992,-35.47720997999994],[-70.99285674999993,-35.477377461999936],[-71.00517491399995,-35.47181359199993],[-71.00910947799991,-35.471889408999914],[-71.01064674399993,-35.466947697999956],[-71.0142319759999,-35.46480967799994],[-71.0270559519999,-35.461068016999945],[-71.0294997009999,-35.45922135699993],[-71.03476889399991,-35.45953938899993],[-71.03807865699991,-35.451570568999955],[-71.04240968899995,-35.45487261699992],[-71.05001039699994,-35.45538158399995],[-71.05552953699993,-35.44965332499993],[-71.05560053599993,-35.44427288299994],[-71.05681739699992,-35.44206218599993],[-71.07304111699995,-35.43642664099991],[-71.08024813599991,-35.42775542499993],[-71.08801613799994,-35.422862883999926],[-71.08694709799994,-35.41841290199994],[-71.09283528999993,-35.41183433899994],[-71.09393222299991,-35.40897979299996],[-71.10021987099992,-35.40421092099996],[-71.10602246299993,-35.39675638199992],[-71.1089705519999,-35.39535206399995],[-71.11487436999994,-35.387331229999916],[-71.11814185999992,-35.38614671599993],[-71.12226676599994,-35.37966046699995],[-71.12896723699993,-35.38567260499991],[-71.12918343799993,-35.39063191899993],[-71.14086942999995,-35.38673402299992],[-71.15262999799995,-35.388000002999945],[-71.15647500099993,-35.39170862099991],[-71.15811227599994,-35.39171560199992],[-71.16442493599993,-35.389639823999914],[-71.16986430399993,-35.385715459999915],[-71.17269099799995,-35.38535813599992],[-71.17688810999994,-35.37982865199996],[-71.18451714899993,-35.37614361399994],[-71.1866588879999,-35.37657361999993],[-71.18966466299992,-35.37356685099991],[-71.19468334499993,-35.371591690999935],[-71.19752472399995,-35.37202681999992],[-71.20226494899993,-35.376204420999954],[-71.21797120699995,-35.38029360799993],[-71.22369103099993,-35.376330166999935],[-71.23169922599993,-35.376475427999935],[-71.23597194599995,-35.378510321999954],[-71.23840949099991,-35.37615292499993],[-71.2506107829999,-35.37131972199995]]]}},{"type":"Feature","properties":{"cut":7110,"comuna":"SAN RAFAEL"},"geometry":{"type":"Polygon","coordinates":[[[-71.44491188199993,-35.21521371099993],[-71.4470842039999,-35.21327278199993],[-71.45176419699993,-35.214996500999916],[-71.46096766599993,-35.215369590999956],[-71.46484413499991,-35.21895875699994],[-71.46744029399991,-35.21780648099991],[-71.47116965599992,-35.218158273999904],[-71.4705098629999,-35.22099348499995],[-71.47224361499991,-35.2219632419999],[-71.47598736299994,-35.21990848999991],[-71.47869004499995,-35.22258186599993],[-71.4829885229999,-35.224313744999904],[-71.4834021929999,-35.22675479299994],[-71.4823076959999,-35.228243499999905],[-71.4840567139999,-35.22963377299993],[-71.4879828999999,-35.22858613999995],[-71.49418678899991,-35.235112098999934],[-71.49873116599991,-35.234689319999916],[-71.50120135599991,-35.23644773299992],[-71.49956729399992,-35.238314172999935],[-71.50003577099994,-35.24134873399993],[-71.50626528599992,-35.239708769999936],[-71.5092707359999,-35.24097508299991],[-71.5099127279999,-35.242788092999945],[-71.5075336669999,-35.243917207999914],[-71.50791518999995,-35.245119821999936],[-71.51535450699993,-35.2422796269999],[-71.51596330399991,-35.2444803219999],[-71.55151032299995,-35.22683112699991],[-71.55666998499993,-35.22669999799996],[-71.55852974499993,-35.23487035499994],[-71.56151353299992,-35.240168027999914],[-71.56186015199995,-35.247261341999945],[-71.56464239999991,-35.24904733099993],[-71.56675687699993,-35.25380563099992],[-71.56867451599993,-35.25523776099993],[-71.56934134599993,-35.260182623999924],[-71.56636984599993,-35.26433996499992],[-71.57353165699993,-35.27721510799995],[-71.56911243499991,-35.28076276699994],[-71.57144352899991,-35.28446459799994],[-71.57114844699993,-35.288159726999936],[-71.57324142699991,-35.29284448599992],[-71.57671311999991,-35.29466534099993],[-71.58304746699991,-35.29280958399994],[-71.58694534299991,-35.29359100599993],[-71.59054005999991,-35.28895036699993],[-71.59674771699991,-35.289206958999955],[-71.6011042149999,-35.28724185699991],[-71.6049520709999,-35.28740897299991],[-71.60961513799992,-35.29269073099994],[-71.61902325299991,-35.29486509299994],[-71.62460687999993,-35.3004331219999],[-71.63029130399991,-35.30020370099993],[-71.6305792739999,-35.30230981699992],[-71.63478277799993,-35.3068725089999],[-71.6346771389999,-35.312542239999914],[-71.63707189099995,-35.315862025999934],[-71.63784217799991,-35.32216386199991],[-71.64247294899991,-35.32701574199996],[-71.64229200799991,-35.333587467999905],[-71.63751421699993,-35.338508464999904],[-71.63413329699995,-35.339041935999944],[-71.62887980699992,-35.34237429199993],[-71.62829811599994,-35.34567246599994],[-71.62607764799992,-35.345022195999945],[-71.62335123499992,-35.34882666099992],[-71.62167085399994,-35.355150332999926],[-71.61636050699991,-35.355273145999945],[-71.6078055609999,-35.358224986999915],[-71.60091579399995,-35.35256230899995],[-71.5948907579999,-35.35590106799992],[-71.5920800639999,-35.35316185999994],[-71.58355579199991,-35.35506756399991],[-71.57723400299994,-35.352740439999934],[-71.57419755299992,-35.35293270299991],[-71.57116380899993,-35.357488005999926],[-71.56949762099993,-35.35799636799993],[-71.56855293899991,-35.362015835999955],[-71.55575085699991,-35.36254189099992],[-71.5552677949999,-35.36526657799993],[-71.55000096099991,-35.3638848839999],[-71.5498246539999,-35.359122156999945],[-71.54735261099995,-35.35809227099992],[-71.54240660799991,-35.35955085799992],[-71.53549893699994,-35.36374196399993],[-71.52935748199991,-35.36303342499991],[-71.52556767199991,-35.36478716699992],[-71.5172866499999,-35.364123252999946],[-71.51577537999992,-35.36277922599993],[-71.51632725099995,-35.360726823999926],[-71.51385921499991,-35.36018822799991],[-71.50573113899992,-35.36341939999994],[-71.4977847099999,-35.36342921699992],[-71.49622766199991,-35.366236080999954],[-71.49714804999991,-35.36866834199992],[-71.4947294019999,-35.36979734899995],[-71.4897181149999,-35.36924055599991],[-71.48606953299992,-35.367207968999935],[-71.48240589999995,-35.36736113899991],[-71.47765548399991,-35.369977011999936],[-71.47162544399993,-35.36964373899991],[-71.47189600799993,-35.37124809399995],[-71.4681358489999,-35.37223516699993],[-71.46181463899995,-35.36566244799991],[-71.45928079999993,-35.36672172899995],[-71.45718181899991,-35.36557255799994],[-71.45600935599992,-35.362203811999905],[-71.44935680499992,-35.363477462999924],[-71.44276459499991,-35.36760846599992],[-71.43565600699992,-35.368015502999924],[-71.4325375919999,-35.366770275999954],[-71.42863397499991,-35.36263840099991],[-71.42905920099992,-35.35641905999995],[-71.41623091699995,-35.346682107999925],[-71.41698184199993,-35.342087835999905],[-71.41411741599995,-35.34094971199994],[-71.41276545699992,-35.337897047999945],[-71.40998808799992,-35.33684869599995],[-71.41011608399992,-35.33027402499994],[-71.40277650899992,-35.32978919799996],[-71.3915971589999,-35.32188907299991],[-71.38407869899993,-35.32186185599994],[-71.38158786899993,-35.32021176399991],[-71.38101640499991,-35.31805957799992],[-71.37747330299993,-35.316287177999925],[-71.3795073039999,-35.30457208699994],[-71.38297751399995,-35.30639637399992],[-71.38905697899992,-35.304232380999906],[-71.39156426499994,-35.3058607129999],[-71.38638319299992,-35.284645903999944],[-71.36718715399991,-35.282185075999905],[-71.36211573699995,-35.26580433399994],[-71.3809501849999,-35.26803040899995],[-71.37976984499994,-35.267326304999926],[-71.38154107799994,-35.263058789999945],[-71.3806561159999,-35.261294292999935],[-71.38553463499994,-35.26035499299991],[-71.3896786599999,-35.26117338599994],[-71.39070239699993,-35.25898445599995],[-71.39633082699993,-35.259614204999934],[-71.39832736399995,-35.25867318699994],[-71.40267742099991,-35.25987139099993],[-71.40988656099995,-35.25817296799994],[-71.41641945899994,-35.265103240999906],[-71.42851455399995,-35.26135277599991],[-71.43210264399994,-35.262079926999945],[-71.43514724399995,-35.26026882799994],[-71.4418778619999,-35.25914538799992],[-71.44764585799993,-35.259250643999906],[-71.45172699099993,-35.262186164999946],[-71.46167167399994,-35.259549558999936],[-71.46224723699993,-35.25597500999993],[-71.46061399199994,-35.25508270799992],[-71.46087096299993,-35.25285996999992],[-71.45520277399993,-35.25003200799995],[-71.45398437999995,-35.24792485699993],[-71.4514042369999,-35.24938791599993],[-71.44510176499995,-35.247568401999956],[-71.44374930999993,-35.24554948699995],[-71.43880559999991,-35.24614505699992],[-71.43609427799993,-35.24418499199993],[-71.43167178199991,-35.24404020199995],[-71.43945646299994,-35.23575944899994],[-71.43868791999995,-35.22920657099991],[-71.43711678199992,-35.22780362199995],[-71.44126088099995,-35.224073880999924],[-71.44446587599992,-35.22453210899994],[-71.44374907699995,-35.221916912999916],[-71.44503387399993,-35.2202681789999],[-71.44334206999991,-35.21983275499991],[-71.44491188199993,-35.21521371099993]]]}},{"type":"Feature","properties":{"cut":7406,"comuna":"SAN JAVIER"},"geometry":{"type":"Polygon","coordinates":[[[-72.0603169279999,-35.43252416099995],[-72.0624138359999,-35.428792770999905],[-72.06756002599991,-35.424325504999956],[-72.06877746799995,-35.41862700699994],[-72.07599458499993,-35.41807111999992],[-72.08470151799992,-35.42540551399992],[-72.09245097399992,-35.43418064999992],[-72.09490159699993,-35.44246159399995],[-72.09919850299991,-35.442322642999954],[-72.1074500979999,-35.43902422299993],[-72.12971593999993,-35.47526983499995],[-72.12530796599992,-35.48783494399993],[-72.18765999699991,-35.57714999499996],[-72.18269930499991,-35.57477512399993],[-72.18004463099993,-35.57495398599991],[-72.1740370519999,-35.578526618999945],[-72.17027714599993,-35.585780135999926],[-72.17103539699991,-35.59015287999995],[-72.1763291069999,-35.59879874399991],[-72.17652855699993,-35.60518681199994],[-72.18496085299995,-35.61100938299995],[-72.18760144099991,-35.61581057199993],[-72.18237727999991,-35.61838435499993],[-72.17721654399992,-35.62391369399995],[-72.16972303799992,-35.625698739999905],[-72.16566652299991,-35.630894077999926],[-72.15043604199991,-35.635565465999946],[-72.14710109999993,-35.64107978099992],[-72.1462148729999,-35.64836615899992],[-72.14067160699994,-35.65240353799993],[-72.13949102599992,-35.65491340799991],[-72.1382323389999,-35.65951293599994],[-72.13883000099992,-35.66602999999992],[-72.12857011299991,-35.64372325499994],[-72.09036000099991,-35.644739999999956],[-72.08528365799992,-35.64910365299994],[-72.0843229539999,-35.655948880999915],[-72.0854830689999,-35.658398235999925],[-72.07836232699992,-35.665865725999936],[-72.07905323199992,-35.66858810499991],[-72.0852799999999,-35.67356999999993],[-72.0368074029999,-35.674833065999906],[-72.03996108299992,-35.68054842099991],[-72.03873059499995,-35.68715407499991],[-72.04356401399991,-35.69267357399991],[-72.04210631399991,-35.69419298099996],[-72.04250294099995,-35.69566096799991],[-72.04546973799995,-35.69670925399993],[-72.04941492299992,-35.70241777399991],[-72.05526791099993,-35.70273780399992],[-72.06071219899991,-35.706031656999926],[-72.05993923199992,-35.70888568299995],[-72.06168109799995,-35.710936691999905],[-72.0629286759999,-35.71621000899995],[-72.05971943599991,-35.72120767599995],[-72.06317683199995,-35.728654856999924],[-72.06713990499992,-35.73185675099995],[-72.06465211499994,-35.73475552299993],[-72.06852992799992,-35.73801210699992],[-72.0641774309999,-35.74632495599991],[-72.06662513999993,-35.75835256799991],[-72.0567128479999,-35.76332684499994],[-72.05118229199991,-35.763554918999944],[-72.04751424499995,-35.76613200299994],[-72.04620063399994,-35.77072534999991],[-72.04081434099993,-35.772329757999955],[-72.04319671099995,-35.77749900799995],[-72.0427747249999,-35.78069139999991],[-72.03954892399992,-35.78268997899994],[-72.0325310899999,-35.78333585799993],[-72.03153070499991,-35.78530262699991],[-72.0331148699999,-35.78818084299991],[-72.03956596799992,-35.789894199999935],[-72.03952101699991,-35.79290823899993],[-72.02755536799992,-35.796933623999905],[-72.02761732599993,-35.802200212999935],[-72.01935952899993,-35.80559185199991],[-72.01400739999991,-35.81160491899993],[-72.01099868199992,-35.81179285099995],[-72.00501998099992,-35.80707477599992],[-72.0018623819999,-35.80712036199992],[-71.99999259499992,-35.814492223999935],[-71.99840285099992,-35.816278118999946],[-71.9932474119999,-35.81578138399993],[-71.98081510599991,-35.81879361299991],[-71.97818375599991,-35.822573280999904],[-71.96152269099991,-35.82884667099995],[-71.95844281399991,-35.81930041499993],[-71.95399816199995,-35.818098720999956],[-71.94735443999991,-35.81895342699994],[-71.9341155859999,-35.83091934899994],[-71.92725511099991,-35.839802843999905],[-71.92133619599991,-35.84165338299994],[-71.90846760799991,-35.83636982799993],[-71.9036921629999,-35.83145517799994],[-71.89878993099995,-35.831728126999906],[-71.89708125199991,-35.83271527399995],[-71.89577337999992,-35.83621664899994],[-71.89733585199991,-35.84642170199993],[-71.8994875539999,-35.849147531999904],[-71.89655576799993,-35.85115613599993],[-71.89071168499993,-35.84991710999992],[-71.8862669419999,-35.84684795499993],[-71.88118851999991,-35.846068603999925],[-71.87009532299993,-35.852450431999955],[-71.85983322899995,-35.85317902899993],[-71.83968677999991,-35.85708714499992],[-71.83225414499992,-35.85602992799994],[-71.81023632999995,-35.84627959799991],[-71.80813550599993,-35.84384542099991],[-71.80845313099991,-35.8395639819999],[-71.81876137899991,-35.840095026999904],[-71.82060313799991,-35.83316509799994],[-71.82572729799995,-35.82712187799996],[-71.82630493899995,-35.82334027199994],[-71.82140189799992,-35.80883434499992],[-71.81711633299994,-35.803276199999914],[-71.8073351939999,-35.80150579299993],[-71.7972773329999,-35.80151726299994],[-71.79249270699995,-35.79754946299994],[-71.7904329449999,-35.79097433499993],[-71.7979078379999,-35.78482464399991],[-71.79674920499991,-35.78177219799994],[-71.79681605299993,-35.774616556999945],[-71.7945267469999,-35.7702336559999],[-71.79421198999995,-35.76530942799991],[-71.7897137569999,-35.760692123999945],[-71.78127146399993,-35.760093371999915],[-71.77913625499991,-35.75726861399994],[-71.7756390099999,-35.7354094449999],[-71.77251754499991,-35.73316071599993],[-71.7748674419999,-35.71948993099994],[-71.77111252499992,-35.71473416999993],[-71.7666480609999,-35.71413180899992],[-71.76376600399993,-35.71168203099995],[-71.7619354709999,-35.707138389999955],[-71.76453462799992,-35.70607513899995],[-71.76773932599991,-35.70117213899994],[-71.77170334099992,-35.69798595599991],[-71.77337660599994,-35.69262997399994],[-71.7712924679999,-35.68575082299992],[-71.7676595769999,-35.67971733899992],[-71.76361527099994,-35.66653747799995],[-71.75999493199993,-35.66156276499993],[-71.76011414399994,-35.65919561399994],[-71.76254087199993,-35.65635775599992],[-71.76196496299991,-35.65328050599993],[-71.75806079599994,-35.65253915199992],[-71.75412770799994,-35.654708342999925],[-71.7515506499999,-35.65432000299995],[-71.74920975299995,-35.64505752999992],[-71.75883928899992,-35.631678517999944],[-71.77020884599995,-35.62469404299992],[-71.76546560499992,-35.61551220599995],[-71.75731841999993,-35.614212806999944],[-71.74841042199995,-35.60965633699993],[-71.70207398399992,-35.62254146399994],[-71.6791942179999,-35.623007739999935],[-71.67409036499993,-35.62378402099995],[-71.67312708399993,-35.62625696799995],[-71.67025019399995,-35.626919942999905],[-71.65457955999995,-35.62769464199994],[-71.63673632299992,-35.64581780299994],[-71.61008713099994,-35.64441299099991],[-71.60148546199991,-35.652257455999916],[-71.58582169199991,-35.64527686699995],[-71.59693154199994,-35.63367755199994],[-71.59668843199995,-35.62481123799995],[-71.59884853499995,-35.62183725299991],[-71.59425279399994,-35.61321934599994],[-71.59574911699991,-35.60900529199995],[-71.5890209069999,-35.596245377999935],[-71.5802492599999,-35.58401010099993],[-71.64208484099993,-35.56524556599993],[-71.65522461899991,-35.56384720099993],[-71.66517296399991,-35.558602753999935],[-71.68233573099991,-35.55574617599996],[-71.69105909399991,-35.552874233999944],[-71.70314661899994,-35.55497849199992],[-71.71516019299992,-35.56343588499993],[-71.73213909599991,-35.56665171699996],[-71.74508812999994,-35.57173577499992],[-71.75354451399994,-35.57091927399995],[-71.76290422299991,-35.56373647299995],[-71.77160690799991,-35.54534516199993],[-71.78260327999993,-35.537609783999926],[-71.78328055999992,-35.52864514999993],[-71.7855660159999,-35.52402615999995],[-71.79092794099995,-35.52210498399995],[-71.80386357099991,-35.521254609999914],[-71.81725595299991,-35.51615610899995],[-71.85157267499994,-35.49840499499993],[-71.8578403379999,-35.49429561599993],[-71.86414026499995,-35.48732445999991],[-71.8721293449999,-35.48122966199992],[-71.87835689999991,-35.46665308799993],[-71.88117705499991,-35.46420282799994],[-71.88687790299991,-35.46363272399992],[-71.89135924199991,-35.467204729999935],[-71.90374104999995,-35.46962836999995],[-71.91355886399992,-35.46921982099991],[-71.91960926899992,-35.46526635999993],[-71.92597996299992,-35.46340877599994],[-71.9328784029999,-35.46452933499995],[-71.93652350299993,-35.4685483099999],[-71.94138952499992,-35.47149258199994],[-71.9692492989999,-35.469765012999915],[-71.97243834199992,-35.46799759699991],[-71.9733174669999,-35.46336736399991],[-71.97793986599993,-35.46157877399992],[-71.98820921999993,-35.46206899799995],[-71.9974291289999,-35.453138364999916],[-72.01253477499995,-35.45107318099991],[-72.01874560199991,-35.445965893999926],[-72.03078706399992,-35.44805405199992],[-72.03981347899992,-35.439726281999924],[-72.03964135899992,-35.43608104499992],[-72.05170149399993,-35.43128258299993],[-72.05386271999993,-35.43294533499994],[-72.0603169279999,-35.43252416099995]]]}},{"type":"Feature","properties":{"cut":7408,"comuna":"YERBAS BUENAS"},"geometry":{"type":"Polygon","coordinates":[[[-71.57455312899992,-35.58587359699993],[-71.5802492599999,-35.58401010099993],[-71.5890209069999,-35.596245377999935],[-71.5958377629999,-35.60921801599994],[-71.59425279399994,-35.61321934599994],[-71.59884853499995,-35.62183725299991],[-71.59668843199995,-35.62481123799995],[-71.59679924399995,-35.63387715399995],[-71.57434128999995,-35.65691944999992],[-71.57183242299993,-35.67087644199995],[-71.57486647499991,-35.68871193499996],[-71.60109547699994,-35.68482667399991],[-71.60374028099994,-35.68992964499995],[-71.6053565549999,-35.68980451899995],[-71.60822664199992,-35.69272576399993],[-71.62104116199993,-35.692023615999915],[-71.62865963099995,-35.70489156799994],[-71.62948406599992,-35.710217309999905],[-71.63225199199991,-35.71324312699994],[-71.6379489759999,-35.71533415099992],[-71.63955810099992,-35.71998772999996],[-71.63738102099995,-35.72318281199995],[-71.6395788559999,-35.72508069199995],[-71.6392087989999,-35.72998647399993],[-71.64057494899993,-35.73351394799994],[-71.6446733169999,-35.73606947999991],[-71.64221308999993,-35.74042151899994],[-71.64642788099991,-35.74454592899991],[-71.64262123199995,-35.748706038999956],[-71.6358128999999,-35.75029327099992],[-71.63908024699992,-35.754834573999915],[-71.63623999999993,-35.75861999999995],[-71.64082468499993,-35.75915333499995],[-71.6497313989999,-35.76413370899991],[-71.6607141209999,-35.77865426299991],[-71.66250352199995,-35.77631511599992],[-71.66434470999991,-35.77655332599994],[-71.66537651399995,-35.780600284999935],[-71.66201195899993,-35.783421554999904],[-71.65711106799995,-35.784601160999955],[-71.65511310399995,-35.78156179599995],[-71.6533325879999,-35.781129850999946],[-71.65048860999991,-35.78556326899991],[-71.64653141499991,-35.787196053999935],[-71.64275018399991,-35.78269323999996],[-71.63896062599991,-35.781121997999946],[-71.63531110699995,-35.78077388499992],[-71.63521350299993,-35.782714324999915],[-71.63295818299991,-35.78259146699992],[-71.6283548099999,-35.779907668999954],[-71.62489336199991,-35.780925872999944],[-71.6203639979999,-35.778969859999904],[-71.61627087799991,-35.78215779699991],[-71.61321383899991,-35.782619575999945],[-71.60644355199992,-35.77792715699991],[-71.59860309299995,-35.7763423209999],[-71.5947275229999,-35.778402383999946],[-71.58552830899993,-35.775907495999945],[-71.5831110069999,-35.77703829099994],[-71.58156024699991,-35.78032807299991],[-71.57838967099991,-35.78158605699991],[-71.56964245299991,-35.77965139199995],[-71.56441178799992,-35.78061543399991],[-71.5589334949999,-35.77805475699995],[-71.55189361799995,-35.776813818999926],[-71.54277548099992,-35.78008872899994],[-71.54321748199993,-35.78221945699994],[-71.54603681999993,-35.78288636299993],[-71.54447395299991,-35.785549086999936],[-71.53954344399995,-35.78226356499994],[-71.53686740199993,-35.783361534999926],[-71.53565251499992,-35.781686642999944],[-71.53272324399995,-35.78332951699991],[-71.52787738399991,-35.781520316999945],[-71.52532355199992,-35.78602498999993],[-71.52295906899991,-35.785415207999904],[-71.52127861899993,-35.782962193999936],[-71.51815836799994,-35.78344847899996],[-71.51818144999993,-35.77989183699992],[-71.51297756899993,-35.76629321799993],[-71.50676955499995,-35.76025771499991],[-71.49557704599994,-35.75292865799992],[-71.49355152999993,-35.74788360499991],[-71.48195890399995,-35.71439965499991],[-71.47930290699992,-35.69833604999991],[-71.4859776479999,-35.69635521099991],[-71.4481722029999,-35.65261979099995],[-71.44186901099994,-35.64822373699991],[-71.43029587099994,-35.621010551999916],[-71.42983377799993,-35.617636417999904],[-71.42594573899993,-35.61391018199993],[-71.42486852999991,-35.610963188999904],[-71.4488575279999,-35.61063399099993],[-71.46050869699991,-35.606688541999915],[-71.48059074199995,-35.603529943999945],[-71.49966128099993,-35.6057449029999],[-71.51741305999991,-35.60220228999992],[-71.5299954429999,-35.59714634399995],[-71.5408565429999,-35.59499508999994],[-71.55029010899995,-35.59026384999993],[-71.5582847949999,-35.58789705099991],[-71.57455312899992,-35.58587359699993]]]}}]}